STARLINK-37338          
1 68739U 26082M   26113.54799516 -.00937873  00000+0 -49961-2 0  9999
2 68739  97.2884 335.6795 0000280  72.5890 287.5410 15.82684302  1188
