{
  "norad_id": 68739,
  "name": "STARLINK-37338",
  "history": [
    {
      "epoch": "2026-04-23T13:09:06.781824Z",
      "apogee_km": 323.0408227586404,
      "perigee_km": 322.6654332916678,
      "latitude_deg": 2.4033417384835395e-05,
      "longitude_deg": -73.19241072150531,
      "height_km": 325.97479192414664,
      "semi_major_axis_km": 6700.990128025153,
      "eccentricity": 2.801e-05,
      "inclination_deg": 97.2884,
      "raan_deg": 335.6795,
      "arg_perigee_deg": 72.589,
      "mean_anomaly_deg": 287.541,
      "mean_motion_rev_day": 15.82684302
    }
  ]
}